[{"OBJECT_NAME":"ONEWEB-0673","OBJECT_ID":"2023-029AN","EPOCH":"2026-03-09T17:17:38.766048","MEAN_MOTION":13.19725507,"ECCENTRICITY":0.00015882,"INCLINATION":87.9232,"RA_OF_ASC_NODE":324.7817,"ARG_OF_PERICENTER":82.992,"MEAN_ANOMALY":277.1393,"EPHEMERIS_TYPE":0,"CLASSIFICATION_TYPE":"U","NORAD_CAT_ID":55832,"ELEMENT_SET_NO":999,"REV_AT_EPOCH":14578,"BSTAR":-0.00051881823,"MEAN_MOTION_DOT":-1.95e-6,"MEAN_MOTION_DDOT":0},{"OBJECT_NAME":"HULIANWANG DIGUI-106","OBJECT_ID":"2025-285B","EPOCH":"2026-03-09T16:55:30.790272","MEAN_MOTION":13.29350457,"ECCENTRICITY":0.00065507,"INCLINATION":50.004,"RA_OF_ASC_NODE":142.9495,"ARG_OF_PERICENTER":39.3211,"MEAN_ANOMALY":320.8136,"EPHEMERIS_TYPE":0,"CLASSIFICATION_TYPE":"U","NORAD_CAT_ID":66916,"ELEMENT_SET_NO":999,"REV_AT_EPOCH":1282,"BSTAR":-1.4618149,"MEAN_MOTION_DOT":-0.00649318,"MEAN_MOTION_DDOT":0}]
