ONEWEB-0673             
1 55832U 23029AN  26068.72058756 -.00000195  00000+0 -51882-3 0  9994
2 55832  87.9232 324.7817 0001588  82.9920 277.1393 13.19725507145787
HULIANWANG DIGUI-106    
1 66916U 25285B   26068.70521748 -.00649318  00000+0 -14618+1 0  9998
2 66916  50.0040 142.9495 0006551  39.3211 320.8136 13.29350457 12824
